BEESAT-4                
1 41619U 16040W   21261.19433684  .00003057  00000-0  12140-3 0  9998
2 41619  97.2610 314.6691 0010612  13.4411 346.7109 15.26021835279159
CAS-2T & KS-1Q          
1 41847U 16066G   21261.42114502  .00000079  00000-0  23151-4 0  9996
2 41847  98.5924 320.8933 0364118 302.9651  53.7016 14.38236385255243
NAYIF-1 (EO-88)         
1 42017U 17008BX  21261.46005777  .00003734  00000-0  13624-3 0  9994
2 42017  97.3085 327.3869 0007256 129.4100 230.7783 15.28740414255461
ZHUHAI-1 02 (CAS-4B)    
1 42759U 17034B   21261.47879836  .00000918  00000-0  68205-4 0  9999
2 42759  43.0180  29.6065 0008027  16.0443  64.8514 15.10370376235212
ZHUHAI-1 01 (CAS-4A)    
1 42761U 17034D   21261.53281248  .00000826  00000-0  62603-4 0  9997
2 42761  43.0183  28.2949 0008042  18.9395  74.5915 15.10457928235221
MAX VALIER SAT          
1 42778U 17036P   21261.55365580  .00001611  00000-0  69417-4 0  9994
2 42778  97.2467 307.0860 0011137 199.5648 160.5164 15.23935887235468
RADFXSAT (FOX-1B)       
1 43017U 17073E   21261.45441822  .00001405  00000-0  11284-3 0  9994
2 43017  97.6960 161.7132 0254394 357.2578   2.7224 14.79740465206876
FOX-1D (AO-92)          
1 43137U 18004AC  21261.48072412  .00002012  00000-0  81961-4 0  9995
2 43137  97.4005 334.5498 0007291 236.7251 123.3289 15.25624013204841
DIWATA-2B               
1 43678U 18084H   21261.55457645 -.00000178  00000-0 -11903-4 0  9998
2 43678  97.9352  27.3766 0011179 101.3941 258.8513 14.91787075157312
ES'HAIL 2               
1 43700U 18090A   21261.51439858  .00000120  00000-0  00000-0 0  9990
2 43700   0.0131 137.6677 0002367  65.1317   5.8292  1.00273807 10307
FOX-1CLIFF (AO-95)      
1 43770U 18099N   21261.46097045  .00000702  00000-0  68480-4 0  9994
2 43770  97.6574 329.5631 0015976 105.9439 254.3543 14.95426056152353
ITASAT 1                
1 43786U 18099AE  21261.42923452  .00000220  00000-0  24861-4 0  9997
2 43786  97.6599 330.2750 0016683  99.0573 261.2536 14.95710317152384
JY1SAT (JO-97)          
1 43803U 18099AX  21261.44402805  .00000172  00000-0  20367-4 0  9996
2 43803  97.6557 330.0319 0016444  98.9972 261.3111 14.95975345152398
UWE-4                   
1 43880U 18111E   21261.49882294  .00000961  00000-0  88466-4 0  9995
2 43880  97.6786 167.6113 0013018 144.8595 215.3488 14.96985881149006
NEXUS (FO-99)           
1 43937U 19003F   21261.37261483  .00002828  00000-0  11118-3 0  9990
2 43937  97.1692 300.8144 0024111  46.3844 313.9390 15.26199001148432
PSAT2 (NO-104)          
1 44354U 19036R   21261.57815008  .00014395  00000-0  18196-3 0  9995
2 44354  28.5274 224.7267 0314003 208.0591 150.2749 15.16498507123118
BRICSAT2 (NO-103)       
1 44355U 19036S   21261.42414028  .00045914 -59406-5  44236-3 0  9992
2 44355  28.5267 163.7907 0239427 307.3505  50.5505 15.36150746123718
JAISAT-1                
1 44419U 19038F   21261.43719860  .00002114  00000-0  11940-3 0  9999
2 44419  97.5976 225.8575 0020789 356.7608   3.3485 15.14069585121867
DUCHIFAT-3              
1 44854U 19089C   21261.41462925  .00000726  00000-0  64203-4 0  9991
2 44854  36.9675 270.8333 0007724 179.0158 181.0601 14.99626609 97061
CAS-6 (TO-108)          
1 44881U 19093C   21261.53986766  .00000103  00000-0  19934-4 0  9993
2 44881  97.9186 339.3337 0015107 356.1469   3.9630 14.81481044 94511
RS-44 & BREEZE-KM R/B   
1 44909U 19096E   21261.42914556  .00000020  00000-0  40707-4 0  9993
2 44909  82.5212  51.0192 0216623 235.5753 122.4705 12.79711027 80710
ORBITAL FACTORY 2 (OF-2)
1 45113U 19071C   21261.43597474  .00003639  00000-0  11100-3 0  9994
2 45113  51.6421 306.4358 0011020 271.8548  88.1173 15.36552671 91462
HUSKYSAT-1 (HO-107)     
1 45119U 19071J   21261.38235358  .00003738  00000-0  11387-3 0  9991
2 45119  51.6418 306.0696 0010457 267.8470  92.1316 15.36517828 91455
BY70-2                  
1 45857U 20042B   21261.58243650  .00001498  00000-0  21823-3 0  9993
2 45857  97.9790 336.3584 0009364 270.9109  89.1038 14.77284667 65297
SALSAT                  
1 46495U 20068K   21261.56859828  .00001373  00000-0  10479-3 0  9995
2 46495  97.6965 198.5338 0018029 116.0681 244.2400 15.03555554 53329
BY70-3                  
1 46839U 20079N   21261.53544412  .00004130  00000-0  12633-3 0  9994
2 46839  97.2338 333.5525 0005995 219.7553 250.4497 15.34384094 48475
RADFXSAT-2 (AO-109)     
1 47311U 21002C   21261.52356527  .00001677  00000-0  83324-4 0  9993
2 47311  60.6851 302.7075 0042049  94.9748 265.6141 15.21996622 37039
UVSQ-SAT                
1 47438U 21006AB  21261.41938721  .00001298  00000-0  76291-4 0  9991
2 47438  97.4788 320.9482 0013884 132.7367 227.5035 15.13366218 36113
DIY-1 (ARDUIQUBE)       
1 47963U 21022AH  21261.49005670  .00003000  00000-0  19971-3 0  9992
2 47963  97.5482 162.1586 0019560 352.3709   7.7219 15.07734041 25910
